[{"OBJECT_NAME":"STARLINK-4376","OBJECT_ID":"2022-084AD","EPOCH":"2026-03-09T17:54:03.530880","MEAN_MOTION":15.01263228,"ECCENTRICITY":0.00014488,"INCLINATION":97.6035,"RA_OF_ASC_NODE":130.2554,"ARG_OF_PERICENTER":193.6697,"MEAN_ANOMALY":166.4488,"EPHEMERIS_TYPE":0,"CLASSIFICATION_TYPE":"U","NORAD_CAT_ID":53216,"ELEMENT_SET_NO":999,"REV_AT_EPOCH":19932,"BSTAR":-2.7617379e-5,"MEAN_MOTION_DOT":-4.13e-6,"MEAN_MOTION_DDOT":0},{"OBJECT_NAME":"OV1-5 DEB","OBJECT_ID":"1966-025G","EPOCH":"2026-03-09T05:46:25.644576","MEAN_MOTION":14.96071423,"ECCENTRICITY":0.0021156,"INCLINATION":144.6099,"RA_OF_ASC_NODE":304.3983,"ARG_OF_PERICENTER":142.8833,"MEAN_ANOMALY":217.3344,"EPHEMERIS_TYPE":0,"CLASSIFICATION_TYPE":"U","NORAD_CAT_ID":5599,"ELEMENT_SET_NO":999,"REV_AT_EPOCH":8962,"BSTAR":0.0043119514,"MEAN_MOTION_DOT":0.00050705,"MEAN_MOTION_DDOT":0}]
